H1 CPF 01  gfz 2021 07 05 00  6861 tandemx   
H2 1003001  6202 36605    2021 07 05 00 59 42 2021 07 10 00 00 42   120 1 1  0 0 0
H9
10 0 59401  16542.000000  0    6069520.912   2647700.094   1893152.562
10 0 59401  16662.000000  0    6316404.672   2556549.643   1009398.345
10 0 59401  16782.000000  0    6450864.160   2417373.273    107874.369
10 0 59401  16902.000000  0    6469793.143   2234615.313   -795548.892
10 0 59401  17022.000000  0    6372209.136   2013521.900  -1684983.350
10 0 59401  17142.000000  0    6159279.824   1760009.317  -2544808.740
10 0 59401  17262.000000  0    5834306.218   1480519.358  -3359954.538
10 0 59401  17382.000000  0    5402662.056   1181865.275  -4116167.586
10 0 59401  17502.000000  0    4871692.502    871073.441  -4800261.249
10 0 59401  17622.000000  0    4250576.295    555225.248  -5400340.059
10 0 59401  17742.000000  0    3550156.742    241302.333  -5905998.302
10 0 59401  17862.000000  0    2782744.178    -63961.298  -6308490.727
10 0 59401  17982.000000  0    1961893.757   -354217.885  -6600872.331
10 0 59401  18102.000000  0    1102165.610   -623632.717  -6778106.745
10 0 59401  18222.000000  0     218868.742   -866997.153  -6837145.150
10 0 59401  18342.000000  0    -672207.448  -1079825.389  -6776971.732
10 0 59401  18462.000000  0   -1555067.965  -1258434.554  -6598619.232
10 0 59401  18582.000000  0   -2413793.055  -1400007.129  -6305153.633
10 0 59401  18702.000000  0   -3232818.754  -1502634.511  -5901625.946
10 0 59401  18822.000000  0   -3997213.740  -1565341.774  -5394995.566
10 0 59401  18942.000000  0   -4692952.455  -1588093.241  -4794022.410
10 0 59401  19062.000000  0   -5307176.108  -1571777.866  -4109126.460
10 0 59401  19182.000000  0   -5828437.481  -1518174.937  -3352217.929
10 0 59401  19302.000000  0   -6246924.983  -1429900.518  -2536497.951
10 0 59401  19422.000000  0   -6554659.090  -1310334.936  -1676232.423
10 0 59401  19542.000000  0   -6745656.512  -1163533.094   -786503.160
10 0 59401  19662.000000  0   -6816057.686   -994119.272    117060.120
10 0 59401  19782.000000  0   -6764212.345   -807167.963   1018561.037
10 0 59401  19902.000000  0   -6590721.101   -608075.511   1902124.531
10 0 59401  20022.000000  0   -6298431.478   -402425.074   2752185.650
10 0 59401  20142.000000  0   -5892388.639   -195848.047   3553772.476
10 0 59401  20262.000000  0   -5379741.243      6114.384   4292776.910
10 0 59401  20382.000000  0   -4769605.574    198145.050   4956206.540
10 0 59401  20502.000000  0   -4072893.104    375277.686   5532412.637
10 0 59401  20622.000000  0   -3302106.297    533014.000   6011292.321
10 0 59401  20742.000000  0   -2471105.291    667427.383   6384461.578
10 0 59401  20862.000000  0   -1594852.149    775251.653   6645396.585
10 0 59401  20982.000000  0    -689136.447    853954.136   6789541.742
10 0 59401  21102.000000  0     229710.636    901790.638   6814383.050
10 0 59401  21222.000000  0    1145110.021    917841.771   6719488.739
10 0 59401  21342.000000  0    2040532.669    902030.666   6506516.414
10 0 59401  21462.000000  0    2899797.063    855121.160   6179186.112
10 0 59401  21582.000000  0    3707362.627    778696.503   5743220.084
10 0 59401  21702.000000  0    4448613.724    675119.268   5206247.615
10 0 59401  21822.000000  0    5110128.447    547472.464   4577677.988
10 0 59401  21942.000000  0    5679929.950    399482.950   3868542.061
10 0 59401  22062.000000  0    6147713.631    235429.995   3091301.500
10 0 59401  22182.000000  0    6505043.422     60040.174   2259629.278
10 0 59401  22302.000000  0    6745512.666   -121630.897   1388167.331
10 0 59401  22422.000000  0    6864867.620   -304324.864    492263.815
10 0 59401  22542.000000  0    6861087.776   -482712.098   -412304.737
10 0 59401  22662.000000  0    6734421.040   -651526.194  -1309620.864
10 0 59401  22782.000000  0    6487372.526   -805697.149  -2183914.844
10 0 59401  22902.000000  0    6124647.999   -940479.735  -3019849.133
10 0 59401  23022.000000  0    5653054.164  -1051574.113  -3802791.686
10 0 59401  23142.000000  0    5081358.840  -1135235.350  -4519073.102
10 0 59401  23262.000000  0    4420115.569  -1188369.020  -5156222.090
10 0 59401  23382.000000  0    3681458.113  -1208611.918  -5703176.416
10 0 59401  23502.000000  0    2878868.495  -1194396.404  -6150465.881
10 0 59401  23622.000000  0    2026925.347  -1144996.003  -6490364.946
10 0 59401  23742.000000  0    1141037.472  -1060551.720  -6717015.047
10 0 59401  23862.000000  0     237167.096   -942080.728  -6826515.405
10 0 59401  23982.000000  0    -668453.163   -791465.614  -6816982.813
10 0 59401  24102.000000  0   -1559604.769   -611425.076  -6688580.337
10 0 59401  24222.000000  0   -2420367.432   -405465.895  -6443514.888
10 0 59401  24342.000000  0   -3235396.835   -177817.373  -6086002.157
10 0 59401  24462.000000  0   -3990192.797     66651.022  -5622202.827
10 0 59401  24582.000000  0   -4671357.560    322528.054  -5060127.368
10 0 59401  24702.000000  0   -5266836.232    583972.873  -4409509.080
10 0 59401  24822.000000  0   -5766138.109    844840.257  -3681647.801
10 0 59401  24942.000000  0   -6160532.361   1098816.795  -2889222.567
10 0 59401  25062.000000  0   -6443213.119   1339564.342  -2046076.589
10 0 59401  25182.000000  0   -6609429.727   1560867.327  -1166977.809
10 0 59401  25302.000000  0   -6656579.223   1756781.688   -267358.160
10 0 59401  25422.000000  0   -6584255.252   1921779.429    636963.980
10 0 59401  25542.000000  0   -6394252.644   2050886.603   1530069.147
10 0 59401  25662.000000  0   -6090528.554   2139811.490   2396225.834
10 0 59401  25782.000000  0   -5679119.381   2185058.799   3220176.756
10 0 59401  25902.000000  0   -5168015.850   2184026.131   3987415.560
10 0 59401  26022.000000  0   -4566999.470   2135080.867   4684446.932
10 0 59401  26142.000000  0   -3887446.373   2037616.218   5299024.959
10 0 59401  26262.000000  0   -3142103.971   1892085.377   5820366.847
10 0 59401  26382.000000  0   -2344844.100   1700013.427   6239339.762
10 0 59401  26502.000000  0   -1510397.275   1463985.624   6548615.670
10 0 59401  26622.000000  0    -654075.732   1187612.895   6742792.570
10 0 59401  26742.000000  0     208508.715    875476.108   6818481.914
10 0 59401  26862.000000  0    1061728.494    533049.542   6774363.828
10 0 59401  26982.000000  0    1890222.184    166605.129   6611208.504
10 0 59401  27102.000000  0    2679169.874   -216901.579   6331864.172
10 0 59401  27222.000000  0    3414558.815   -609962.507   5941211.688
10 0 59401  27342.000000  0    4083435.113  -1004662.287   5446084.106
10 0 59401  27462.000000  0    4674136.143  -1392836.345   4855152.873
10 0 59401  27582.000000  0    5176500.089  -1766238.236   4178781.996
10 0 59401  27702.000000  0    5582049.642  -2116712.715   3428850.807
10 0 59401  27822.000000  0    5884144.102  -2436372.227   2618546.548
10 0 59401  27942.000000  0    6078095.380  -2717771.713   1762131.088
10 0 59401  28062.000000  0    6161246.718  -2954077.128    874686.658
10 0 59401  28182.000000  0    6133011.326  -3139224.536    -28156.917
10 0 59401  28302.000000  0    5994868.239  -3268064.405   -930505.657
10 0 59401  28422.000000  0    5750316.735  -3336487.947  -1816491.241
10 0 59401  28542.000000  0    5404788.454  -3341531.224  -2670557.838
10 0 59401  28662.000000  0    4965523.433  -3281456.007  -3477740.619
10 0 59401  28782.000000  0    4441411.348  -3155805.090  -4223930.578
10 0 59401  28902.000000  0    3842803.298  -2965431.659  -4896120.333
10 0 59401  29022.000000  0    3181298.160  -2712500.862  -5482625.950
10 0 59401  29142.000000  0    2469511.323  -2400465.447  -5973280.379
10 0 59401  29262.000000  0    1720831.646  -2034017.824  -6359599.380
10 0 59401  29382.000000  0     949168.354  -1619017.160  -6634918.937
10 0 59401  29502.000000  0     168693.495  -1162393.341  -6794499.035
10 0 59401  29622.000000  0    -606414.109   -672031.658  -6835595.916
10 0 59401  29742.000000  0   -1362220.222   -156639.101  -6757503.551
10 0 59401  29862.000000  0   -2085280.063    374406.655  -6561564.209
10 0 59401  29982.000000  0   -2762871.729    911223.286  -6251147.169
10 0 59401  30102.000000  0   -3383215.392   1443602.675  -5831597.448
10 0 59401  30222.000000  0   -3935677.094   1961200.351  -5310154.454
10 0 59401  30342.000000  0   -4410954.460   2453733.442  -4695839.017
10 0 59401  30462.000000  0   -4801238.964   2911183.972  -3999307.769
10 0 59401  30582.000000  0   -5100351.206   3324001.727  -3232677.982
10 0 59401  30702.000000  0   -5303847.997   3683304.525  -2409325.208
10 0 59401  30822.000000  0   -5409096.502   3981070.893  -1543653.706
10 0 59401  30942.000000  0   -5415314.194   4210319.432   -650844.737
10 0 59401  31062.000000  0   -5323572.136   4365270.651    253413.469
10 0 59401  31182.000000  0   -5136760.920   4441487.285   1153208.854
10 0 59401  31302.000000  0   -4859518.160   4435986.903   2032695.235
10 0 59401  31422.000000  0   -4498120.626   4347325.132   2876380.343
10 0 59401  31542.000000  0   -4060343.631   4175648.440   3669406.492
10 0 59401  31662.000000  0   -3555291.727   3922713.648   4397818.221
10 0 59401  31782.000000  0   -2993205.801   3591874.490   5048810.992
10 0 59401  31902.000000  0   -2385250.417   3188035.704   5610956.896
10 0 59401  32022.000000  0   -1743286.882   2717576.420   6074402.733
10 0 59401  32142.000000  0   -1079637.151   2188244.473   6431037.839
10 0 59401  32262.000000  0    -406844.806   1609024.022   6674628.266
10 0 59401  32382.000000  0     262561.456    989980.667   6800919.977
10 0 59401  32502.000000  0     916301.123    342085.081   6807708.451
10 0 59401  32622.000000  0    1542566.066   -322980.886   6694874.422
10 0 59401  32742.000000  0    2130232.951   -993034.182   6464386.635
10 0 59401  32862.000000  0    2669060.626  -1655613.100   6120269.898
10 0 59401  32982.000000  0    3149870.511  -2298208.701   5668540.166
99
